{
"type": "FeatureCollection",
"name": "bhadra_entire_region",
"crs": { "type": "name", "properties": { "name": "urn:ogc:def:crs:OGC:1.3:CRS84" } },
"features": [
{"type":"Feature","properties":{"fid":1},"geometry":{"type":"Polygon","coordinates":[[[75.617919772506056,13.820779524167705],[75.627301933830424,13.814987315229468],[75.632353905055623,13.815303063431044],[75.637721624482396,13.815829310433669],[75.638890942131781,13.816648839241426],[75.647470056978676,13.817284329230084],[75.654142701859584,13.819508544190388],[75.66558152165544,13.820461779173376],[75.668123481610067,13.817602074224414],[75.674478381496655,13.807116489411548],[75.676702596456963,13.799490609547647],[75.675749361473976,13.791864729683745],[75.673207401519335,13.787734044757464],[75.675141610821328,13.783896153634288],[75.675719984779064,13.781334783250042],[75.676711482992317,13.779021287419109],[75.679107603674353,13.779021287419109],[75.682412597718539,13.779103912270214],[75.684973968102796,13.779517036525737],[75.687039589380404,13.780095410483471],[75.688692086402511,13.780343285036786],[75.690344583424604,13.780343285036786],[75.690922957382327,13.777616664950328],[75.689931459169074,13.774559545459454],[75.689600959764661,13.772163424777416],[75.690261958573501,13.770015178648693],[75.689022585806924,13.768610556179912],[75.686295965720461,13.768197431924388],[75.683982469889528,13.766875434306712],[75.683651970485116,13.764892437880199],[75.684065094740646,13.763239940858105],[75.685552342060518,13.761339569282695],[75.688692086402511,13.757951950387401],[75.691170831935651,13.757951950387401],[75.69232757985111,13.756629952769725],[75.69298857865995,13.755060080598735],[75.69298857865995,13.754729581194315],[75.695302074490883,13.754729581194315],[75.693980076873203,13.752085585958964],[75.6938974520221,13.750102589532451],[75.694107388499418,13.748754475105715],[75.696415433883303,13.748754475105715],[75.697349642729151,13.747875219721379],[75.701690966189318,13.748095033567463],[75.700317129651296,13.744358198184038],[75.700317129651296,13.744358198184038],[75.699712641574564,13.740951083569739],[75.698448711959571,13.739302479724111],[75.698448711959571,13.739302479724111],[75.697459549652194,13.738093503570649],[75.694601969653107,13.738038550109129],[75.692953365807483,13.737324155109356],[75.69284345888444,13.73578545818677],[75.691084948115773,13.73518097011004],[75.688227368116685,13.732708064341596],[75.686908485040178,13.731938715880302],[75.685809415809757,13.731608995111177],[75.685974276194315,13.728916275496651],[75.686963438501692,13.723915510498244],[75.688088755334675,13.721115520754898],[75.690092354176045,13.721115520754898],[75.692763819297895,13.721629264047559],[75.693688557224675,13.72070452612077],[75.695229787102662,13.716697328438011],[75.696925139968442,13.714950601242963],[75.69733613460258,13.712998376730852],[75.697644380578168,13.710429660267545],[75.698055375212306,13.709093927706625],[75.698312246858634,13.706525211243321],[75.698517744175689,13.703802371792216],[75.70021309704147,13.70282625953616],[75.704025377408229,13.702223187383687],[75.706950497192111,13.701225987457363],[75.708213617098792,13.700960067477011],[75.710739856912141,13.701957267403335],[75.71273425676479,13.703951667255982],[75.714928096602705,13.702023747398423],[75.716457136489737,13.700627667501569],[75.716523616484821,13.698832707634187],[75.719781136244151,13.699497507585068],[75.721044256150833,13.69869974764401],[75.722174416067332,13.699098627614539],[75.722307376057501,13.704948867182306],[75.723238095988734,13.706411427074247],[75.725631375811915,13.707209187015307],[75.727426335679297,13.707342147005484],[75.72882910747623,13.707121829659778],[75.729492303689625,13.704848014070967],[75.730344984535435,13.701721517636351],[75.731197665381231,13.701721517636351],[75.732239830859442,13.700963579106746],[75.733092511705252,13.697173886458726],[75.733092511705252,13.695373782450917],[75.729966015270634,13.695373782450917],[75.73100818074883,13.693573678443107],[75.73252405780805,13.692531512964901],[75.736503235088463,13.694236874656511],[75.736313750456063,13.691205120538095],[75.737734885199075,13.689499758846486],[75.739534989206874,13.687889139471078],[75.74228251637669,13.684288931455459],[75.743608908803495,13.682488827447649],[75.747777570716323,13.676993773108022],[75.749482932407929,13.675004184467809],[75.75052509788614,13.673014595827599],[75.750619840202333,13.670077584025384],[75.75224200256585,13.666916285501724],[75.75224200256585,13.676123302735849],[75.74973099786564,13.683098315792003],[75.747917494471039,13.687562324147944],[75.748614995776663,13.691607831720514],[75.752102502304737,13.693560835376237],[75.755311008310571,13.694258336681852],[75.756427010399548,13.695653339293084],[75.751390977049425,13.697949981845635],[75.750733694087387,13.701691837032737],[75.749812236041549,13.704896442280287],[75.750969979447333,13.706580432688687],[75.754022212062551,13.709316917102338],[75.754351043026716,13.709152619220092],[75.756385801805081,13.708474366293968],[75.759324897818288,13.703952680119814],[75.763705156910859,13.702054708466111],[75.76696788832713,13.697213236041961],[75.771759534797212,13.694004970536676],[75.775829052353942,13.689483284362522],[75.777411642514906,13.686544188349322],[75.779220316984564,13.681118164940337],[75.778994232675856,13.677274731692306],[75.780350738528099,13.670492202431074],[75.78464634039355,13.667100937800459],[75.786907183480622,13.660544492847935],[75.783289834541307,13.657379312526027],[75.780576822836807,13.652405457734458],[75.778768148367149,13.648335940177718],[75.776055136662649,13.643588169694857],[75.77786381113232,13.639292567829411],[75.777411642514906,13.635223050272673],[75.776055136662649,13.632283954259472],[75.776959473897492,13.628440521011441],[75.780576822836807,13.625953593615657],[75.785550677628379,13.624823172072118],[75.791881038272194,13.623240581911164],[75.794016984262072,13.621854665266037],[75.796753468675718,13.618276185648186],[75.795498387211509,13.615327631106394],[75.795806224071001,13.61269796742036],[75.795724471520231,13.59904956087944],[75.793689712741852,13.592719200235624],[75.792333206889609,13.587971429752761],[75.791701497450532,13.587227612493303],[75.790964751646854,13.585754120885952],[75.789394110876415,13.584806249430853],[75.782385497306464,13.57644113000867],[75.783491198054193,13.574979024905243],[75.785979218850372,13.57202450020978],[75.788000735747261,13.571868998910018],[75.789404028031015,13.569132776943167],[75.793608437386951,13.573337186299096],[75.796823573953247,13.577046959260208],[75.799544074124725,13.575810368273171],[75.801769937901398,13.576057686470579],[75.802511892493612,13.571605958917242],[75.803006528888432,13.567648867758722],[75.797565528545462,13.561713231020942],[75.800286028716954,13.548110730163527],[75.800038710519544,13.543906320807599],[75.804243119875466,13.543659002610191],[75.810426074810664,13.542669729820561],[75.815372438758814,13.541433138833524],[75.819576848114735,13.540443866043894],[75.820813439101769,13.535497502095742],[75.823781257470671,13.532035047332037],[75.831471576994744,13.526017954630666],[75.834101886561641,13.5240452224555],[75.835548556823426,13.521414912888613],[75.830419453167991,13.521151881931923],[75.817793967246928,13.519047634278413],[75.817111398796186,13.517770833663812],[75.816986906615909,13.513911576075481],[75.817484875336987,13.507437982701505],[75.816986906615909,13.504325678194785],[75.816239953534307,13.503454232932905],[75.8126296803065,13.503454232932905],[75.811011281963019,13.503578725113174],[75.808023469636566,13.507188998340968],[75.805035657310114,13.507562474881773],[75.802421321524463,13.508309427963386],[75.800553938820443,13.511546224650374],[75.79818858739533,13.514285052616287],[75.795823235970218,13.515405482238707],[75.784120971024961,13.515156497878168],[75.784120971024961,13.515156497878168],[75.781133158698509,13.515778958779512],[75.780510697797169,13.514285052616287],[75.782378080501189,13.511546224650374],[75.783623002303884,13.509429857585806],[75.784494447565763,13.507313490521236],[75.783374017943345,13.504948139096129],[75.781008666518247,13.503952201653979],[75.778269838552333,13.501337865868335],[75.777149408929901,13.498723530082691],[75.775157534045604,13.495486733395703],[75.774535073144264,13.492000952348178],[75.773663627882385,13.489013140021727],[75.774659565324527,13.482788531008289],[75.775282026225881,13.471335250423563],[75.774651526475267,13.46124039021257],[75.775106808315797,13.455594895389909],[75.775015751947691,13.453136373451008],[75.773285680953649,13.45195264066561],[75.771282440855288,13.450951020616429],[75.768550749812064,13.44949411872671],[75.767093847922339,13.451133133352643],[75.764999551455873,13.451679471561288],[75.76326948046183,13.452590035242363],[75.761175183995363,13.453682711659653],[75.75944511300132,13.45413799350019],[75.757350816534853,13.454411162604512],[75.755438632804598,13.454593275340727],[75.753435392706223,13.454593275340727],[75.751432152607862,13.457598135488272],[75.749246799773289,13.459510319218529],[75.746332995993839,13.459601375586637],[75.744785037736023,13.459237150114207],[75.74351024858251,13.457598135488272],[75.743146023110086,13.45623228996666],[75.742326515797117,13.452316866138041],[75.74351024858251,13.451133133352643],[75.744908930690428,13.448330289967313],[75.744800538920671,13.445620495723245],[75.743933404762572,13.443235876788467],[75.744366971841615,13.441610000242028],[75.745234105999714,13.442368742630366],[75.746209631927584,13.440417690774638],[75.746209631927584,13.437382721221283],[75.746209631927584,13.435323277595792],[75.746101240157813,13.434239359898166],[75.745234105999714,13.432505091581964],[75.744366971841615,13.43077082326576],[75.741982352906845,13.426435152475253],[75.741223610518503,13.42383375000095],[75.73981451751159,13.422099481684748],[75.738188640965149,13.419389687440681],[75.740758528366271,13.411772122890119],[75.741800583277168,13.409948526796034],[75.741800583277168,13.406561848335588],[75.739195445999911,13.40343568360287],[75.73659030872264,13.399527977686972],[75.736329794994916,13.396141299226528],[75.732422089079023,13.397704381592886],[75.727472328252219,13.399788491414698],[75.723312195046603,13.398796052275756],[75.719135888964971,13.399267463959246],[75.716270237959975,13.400049005142426],[75.712623045771807,13.400570032597878],[75.712102018316344,13.398746436503792],[75.709496881039087,13.399267463959246],[75.705328661395455,13.400309518870152],[75.701420955479563,13.400309518870152],[75.699597359385479,13.396922840409706],[75.69907633193003,13.391191538399724],[75.697252735835932,13.386762805028372],[75.694164350476044,13.384695958542814],[75.696122724085413,13.382247991531107],[75.698570691097117,13.380616013523301],[75.700855460308048,13.378820837714716],[75.701834647112733,13.377188859706912],[75.703629822921314,13.375393683898327],[75.703956218522876,13.374088101492084],[75.703793020722088,13.371476936679597],[75.702977031718191,13.368539376265549],[75.700529064706487,13.367560189460866],[75.696775515288536,13.365438618050721],[75.693837954874482,13.364133035644477],[75.691879581265113,13.361848266433551],[75.690247603257319,13.362664255437453],[75.688452427448723,13.363643442242136],[75.686983647241703,13.364949024648379],[75.683719691226102,13.367070596058525],[75.682740504421417,13.366907398257744],[75.679802944007363,13.363153848839794],[75.677191779194885,13.359889892824185],[75.674580614382393,13.359237101621062],[75.673275031976146,13.361195475230428],[75.6719694495699,13.364133035644477],[75.670663867163654,13.365928211453062],[75.669684680358984,13.367560189460866],[75.669847878159757,13.370824145476474],[75.668705493554299,13.373435310288961],[75.670663867163654,13.372945716886621],[75.6719694495699,13.37278251908584],[75.674580614382393,13.373435310288961],[75.678170965999556,13.37604647510145],[75.674743812183166,13.377025661906131],[75.671479856167565,13.378820837714716],[75.669358284757422,13.380779211324082],[75.67050066936288,13.385185551945154],[75.67050066936288,13.387470321156082],[75.670011075960545,13.391223870574031],[75.668052702351176,13.393508639784958],[75.667073515546491,13.395467013394324],[75.664135955132437,13.39791498040603],[75.662340779323856,13.399546958413834],[75.660871999116836,13.397098991402128],[75.658260834304343,13.395467013394324],[75.656465658495762,13.393671837585739],[75.653691295882496,13.391223870574031],[75.651896120073914,13.390407881570129],[75.646020999245806,13.390571079370909],[75.639982680616939,13.382737584933448],[75.636555526800549,13.381921595929546],[75.632965175183372,13.384206365140471],[75.631333197175579,13.386001540949056],[75.630190812570106,13.38665433215218],[75.629538021366983,13.38665433215218],[75.631006801574017,13.381595200327984],[75.631496394976352,13.37996322232018],[75.633435599736757,13.380370668305364],[75.635609144271214,13.380253179411611],[75.637697911406008,13.37947362891784],[75.640741004873362,13.380602400203689],[75.644473036067637,13.380135896304406],[75.646836988249717,13.378984035515497],[75.648468966257525,13.377841650910035],[75.649448153062195,13.376699266304572],[75.650264142066106,13.37604647510145],[75.651569724472353,13.374251299292865],[75.653038504679373,13.371803332281157],[75.654996878288742,13.369844958671793],[75.656465658495762,13.367560189460866],[75.656465658495762,13.366091409253842],[75.654996878288742,13.36527542024994],[75.649774548663757,13.363969837843696],[75.641451460823959,13.365765013652281],[75.635413142195077,13.362337859835892],[75.630843603773229,13.361195475230428],[75.630843603773229,13.361195475230428],[75.628558834562298,13.3656018158515],[75.627090054355278,13.369028969667889],[75.626437263152155,13.36919216746867],[75.621051735726397,13.364949024648379],[75.618277373113131,13.363480244441355],[75.612838316874246,13.360228419149127],[75.612813993221593,13.359755845325964],[75.61201131268372,13.359769744556056],[75.611813248654883,13.359759320133486],[75.611524839630462,13.359752370518439],[75.61122253137593,13.359752370518439],[75.609275315078023,13.358203744776057],[75.608338338624151,13.357442887844531],[75.60207669782038,13.351302318139146],[75.593833292536956,13.359674433396407],[75.59271751976101,13.370274274767821],[75.594391178924937,13.373999857915789],[75.590805488694315,13.374896280473445],[75.588415028540567,13.374746876713836],[75.586173972146426,13.372954031598525],[75.584480737459586,13.377023995696327],[75.582899975027019,13.37823281402712],[75.581412198619887,13.378325800052567],[75.580203380289092,13.37674503761999],[75.579645464136419,13.376001149416425],[75.578157687729288,13.37460635903474],[75.5766793871922,13.371649757960631],[75.577082096454816,13.369796574533519],[75.575691410469943,13.367015202563767],[75.579168125432133,13.364790104987966],[75.58194949740188,13.362704076010653],[75.581810428803394,13.358810155253002],[75.583201114788267,13.357419469268127],[75.582783908992809,13.354081822904426],[75.580976017212464,13.351022313737699],[75.581786465066997,13.347749390846889],[75.583164715162212,13.347060265799284],[75.58557665282882,13.34413148434696],[75.588505434281146,13.342064109204141],[75.590917371947768,13.343786921823156],[75.591434215733472,13.344820609394565],[75.593673872138197,13.341374984156536],[75.596774934852419,13.337929358918506],[75.599186872519041,13.333794608632871],[75.597765675388274,13.32888944337418],[75.597765675388274,13.32888944337418],[75.596839178966647,13.32584524084597],[75.597758066060706,13.320543634008278],[75.597341292832866,13.315333968660239],[75.597758066060706,13.311374622995729],[75.598428698176633,13.305495877752497],[75.597981529683508,13.303707203779993],[75.594404181738511,13.304005316108745],[75.592317395437249,13.306390214738748],[75.588590991327862,13.307284551725001],[75.585311755711615,13.308327944875627],[75.574877824205345,13.311309068163132],[75.574877824205345,13.311309068163132],[75.572194813246583,13.31861282021752],[75.571151420095958,13.326661853093785],[75.567872184479711,13.339778795558809],[75.561313713247188,13.347976884599449],[75.557289196809066,13.353491962681334],[75.550730725576557,13.355429692818213],[75.550454064814815,13.358922921093942],[75.545900403508114,13.360272154073703],[75.545900403508114,13.360272154073703],[75.540840779834014,13.359007248155178],[75.540840779834014,13.359007248155178],[75.539491546854251,13.359597537583824],[75.538479622119425,13.359007248155178],[75.536708753833494,13.353020026807487],[75.533841633751493,13.352851372685016],[75.532408073710499,13.354031951542307],[75.529793934812218,13.356730417501831],[75.528950664199868,13.357995323420356],[75.528950664199868,13.357995323420356],[75.528613355954917,13.353778970358603],[75.528107393587518,13.343322414765453],[75.527582591190068,13.341510223396552],[75.527176239267888,13.340453708398863],[75.524656857350323,13.345573742618431],[75.524656857350323,13.345573742618431],[75.52099969005063,13.356057622210878],[75.52099969005063,13.356057622210878],[75.517992685826442,13.348499476458183],[75.517992685826442,13.348499476458183],[75.514904411217813,13.349637261840311],[75.513593978865188,13.348640737909987],[75.512421789603536,13.345124170125017],[75.509491316449385,13.342486744286289],[75.50714693792608,13.340362151249536],[75.505681701349005,13.339116700159025],[75.503337322825686,13.338896914672464],[75.501359253446651,13.340069103934121],[75.499381184067602,13.341314555024631],[75.496890281886579,13.343658933547946],[75.496597234571169,13.345637002926992],[75.497329852859693,13.349373356198523],[75.499820755040716,13.352743400325787],[75.499820755040716,13.358091513832097],[75.499820755040716,13.358091513832097],[75.497842685661681,13.362120914419041],[75.494399379705555,13.367029456952229],[75.491410027148163,13.378778431157293],[75.494984229055348,13.380565532110893],[75.494116208592175,13.384497154208809],[75.492839707911031,13.387764995952532],[75.493656668346972,13.392156158295659],[75.495137409137087,13.39307523878608],[75.495954369573028,13.392717818595361],[75.496822390036201,13.39225827835015],[75.501775212679021,13.390573297451043],[75.504175033959569,13.38965421696062],[75.504685634232032,13.389552096906129],[75.508719376384434,13.392207218322904],[75.507902415948507,13.394351739467222],[75.511797023180179,13.398481825577289],[75.515324339585462,13.401765878782205],[75.518121866389649,13.40492830038694],[75.51994634039238,13.410280090794952],[75.51994634039238,13.416969828804966],[75.520311235192921,13.420740408410612],[75.518000234789469,13.421713461212068],[75.532352763610945,13.436065990033555],[75.530771552808588,13.445309991647393],[75.530771552808588,13.445309991647393],[75.514959444784907,13.442512464843205],[75.514959444784907,13.442512464843205],[75.515567602785822,13.446283044448849],[75.51240518118108,13.450053624054494],[75.509663388127564,13.453842217914678],[75.507908561333011,13.476654966243899],[75.521596210330543,13.482972342704297],[75.526509725355297,13.48683296165232],[75.527913586790945,13.489289719164697],[75.527913586790945,13.489289719164697],[75.519490418177071,13.519823705389962],[75.526158759996392,13.524386255055806],[75.531072275021145,13.525088185773628],[75.53563482468698,13.524737220414718],[75.537325948023479,13.529555407771603],[75.541493680301912,13.532472820366506],[75.548971508325607,13.53842486941225],[75.557745642298386,13.53842486941225],[75.567542007042107,13.536223779417092],[75.570459419637004,13.540183125081603],[75.573188118090471,13.54474224587265],[75.570731360578094,13.561588583100381],[75.569678464501365,13.568958855637515],[75.573188118090471,13.571415613149892],[75.57775066775632,13.57387237066227],[75.584068044216721,13.570362717073159],[75.589683489959299,13.568958855637515],[75.586875767088003,13.575978162815737],[75.591789282112757,13.582646504635047],[75.600563416085535,13.588612915736535],[75.604775000392465,13.588612915736535],[75.614251065083067,13.587209054300891],[75.616450177546199,13.586815697459306],[75.616776089664896,13.592356203477205],[75.608302374578699,13.594637588308103],[75.606346901866502,13.598874445851203],[75.60602098974779,13.602459479156902],[75.60602098974779,13.602459479156902],[75.605369165510396,13.602133567038202],[75.604717341273002,13.595615324664204],[75.601458220086002,13.592682115595904],[75.597966452674655,13.592071391948071],[75.596895450424199,13.599526270088603],[75.596895450424199,13.599526270088603],[75.594614065593305,13.606044512462599],[75.599176835255093,13.6063704245813],[75.602110044323396,13.611259106361798],[75.600154571611199,13.613866403311397],[75.598199098899002,13.618755085091896],[75.592332680762397,13.617451436617095],[75.592332680762397,13.617451436617095],[75.589399471694108,13.618429172973196],[75.587769911100608,13.615495963904896],[75.588172281820334,13.612701666726307],[75.585162614151002,13.609303633649599],[75.588095823219305,13.602459479156902],[75.588095823219305,13.602459479156902],[75.587769911100608,13.599526270088603],[75.582555317201411,13.602459479156902],[75.5805998444892,13.6063704245813],[75.577340723302214,13.603437215513001],[75.579296196014411,13.597570797376402],[75.571800217284306,13.590074818646306],[75.570496568809503,13.592356203477205],[75.574407514233911,13.6047408639878],[75.574407514233911,13.6047408639878],[75.570496568809503,13.6053926882252],[75.563978326435517,13.6070222488187],[75.563326502198109,13.6086518094122],[75.575059338471306,13.608325897293499],[75.575711162708714,13.612236842717898],[75.581903492964003,13.613866403311397],[75.580670363719193,13.616452625776891],[75.582711251526689,13.621421743916887],[75.5792506156792,13.623462631724385],[75.58013795820419,13.625148582521884],[75.585550747606689,13.624527442754385],[75.588747647456699,13.627880624415493],[75.586792174744502,13.630162009246392],[75.5854885262697,13.632117481958591],[75.592006768643699,13.646457615181387],[75.592006768643699,13.650694472724485],[75.590526600287674,13.648407837637848],[75.590126208055338,13.6517253732773],[75.586408280183534,13.651553776606294],[75.586408280183534,13.647263859831138],[75.584577915692805,13.647492655392481],[75.583834330118435,13.643831926411016],[75.581537663178295,13.642375073085981],[75.581251668726608,13.642546669756987],[75.577340723302214,13.642220757638288],[75.576341275484509,13.63845523071949],[75.573595728748401,13.63834083293882],[75.573652927638747,13.64303114194632],[75.570850182012308,13.642745147494644],[75.568867008216003,13.642546669756987],[75.565187491869111,13.642344755262297],[75.566045475224129,13.639828004087539],[75.563528724049377,13.639599208526198],[75.562327547352339,13.641887164139613],[75.560783177313283,13.640342794100558],[75.558667969420796,13.639502845773862],[75.557809986065763,13.636757299037763],[75.557546348456043,13.636744395961626],[75.557154086589762,13.636771448504129],[75.556446637513574,13.636850065803657],[75.555531455268209,13.640053203662438],[75.553976509363366,13.639027219622845],[75.552775332666329,13.636396070667416],[75.550029785930235,13.634508507286348],[75.54854261478151,13.637196855132112],[75.551631354859623,13.639542009635862],[75.553549138637109,13.642872581875688],[75.553549138637109,13.642872581875688],[75.558525059061722,13.644105478015144],[75.559032111933149,13.647147795243713],[75.55953916480459,13.650612656531806],[75.562074429161726,13.648668953857998],[75.563426570152203,13.651119709403234],[75.564102640647434,13.654246535443708],[75.564863219954574,13.653908500196088],[75.565623799261715,13.653232429700852],[75.566130852133156,13.649345024353236],[75.568666116490292,13.648753462669902],[75.569595713421236,13.652471850393709],[75.570863345599818,13.651626762274661],[75.573060574709331,13.64942953316514],[75.575173295006948,13.648246409798475],[75.575426821442662,13.651880288710377],[75.573736645204576,13.65517613237466],[75.574243698076003,13.658894520098467],[75.576609944809334,13.657288852672277],[75.578553647483147,13.653401447324661],[75.581680473523619,13.655429658810373],[75.581849491147423,13.657795905543706],[75.580581858968856,13.662443890198464],[75.583708685009327,13.662612907822274],[75.584638281940286,13.660162152277037],[75.58565238768314,13.66058469633656],[75.585593487122566,13.663784004569681],[75.585593487122566,13.663784004569681],[75.588231710559,13.667927820367789],[75.592446916519123,13.666644931597316],[75.59269256132167,13.668220925944127],[75.592625025182514,13.670611763555366],[75.595354714146339,13.669108310219015],[75.59780792134633,13.669925792004273],[75.598417673836181,13.672212363841247],[75.597045730733996,13.675870878780406],[75.593158558611137,13.675337345351778],[75.576847679507395,13.677014164698893],[75.577076336691093,13.67724282188259],[75.577762308242185,13.681358651189143],[75.579515346650538,13.682425718046398],[75.584012271263248,13.681053774944214],[75.587442129018712,13.679910489025726],[75.592396367998816,13.680520241515586],[75.595354714146339,13.682862766479793],[75.591485576796998,13.68529017367173],[75.592897306249156,13.687848933303748],[75.593867870247507,13.688201865666786],[75.594220802610536,13.690672392208043],[75.592985539339907,13.693054685658543],[75.592632606976878,13.696319310016634],[75.591485576796998,13.698613370376375],[75.58866211789271,13.694819347473727],[75.585044561171586,13.69111355766184],[75.583456365537913,13.692613520204747],[75.581077728179011,13.692226391432889],[75.578494412923447,13.687299687854239],[75.577897680820087,13.68529017367173],[75.574501183686451,13.685968611441906],[75.572045852789358,13.686680503035735],[75.569510589522096,13.687631226760962],[75.570064262312002,13.685081227167016],[75.569985951384709,13.680976160684374],[75.567609142071632,13.680183890913352],[75.562063253674481,13.683669877905849],[75.556992727139942,13.680817706730171],[75.553189832239028,13.676064088104036],[75.550337661063352,13.677331719737673],[75.546992271164896,13.683750150754683],[75.542111657652995,13.680644305792571],[75.533699995871885,13.680342344867556],[75.534175357734497,13.683828331860054],[75.532115456329848,13.688581950486187],[75.529688277804553,13.691736609228684],[75.526138740704994,13.709927986863907],[75.525446496064347,13.715329279110405],[75.522651368312182,13.722491793975331],[75.523000759281203,13.727732658510643],[75.524747714126306,13.728780831417705],[75.524747714126306,13.731575959169872],[75.51903966650589,13.734331054423354],[75.525129241557011,13.745650633955387],[75.529122470794007,13.755855553116611],[75.527469817117336,13.756515661295579],[75.529115101239071,13.758828454753493],[75.533831879320843,13.758653759268983],[75.542217262577353,13.75708149990839],[75.545187085814021,13.759003150238003],[75.550952036802869,13.763021146381742],[75.559162724574861,13.765117492195868],[75.563006025234088,13.765641578649399],[75.562521495975446,13.775150731068246],[75.567284424236533,13.772331664575852],[75.569100031204556,13.774648134583707],[75.56987998166565,13.777317965008237],[75.571072335362459,13.781463525762561],[75.571895773534251,13.782301668187415],[75.573910256204513,13.781669385305507],[75.574601356098697,13.781860540595387],[75.575865921862501,13.781801723583117],[75.576983445095649,13.782786908538647],[75.583080370706938,13.786279448081391],[75.580451356523596,13.784257129478828],[75.585911616750522,13.786683911801903],[75.591319669483241,13.785274181754382],[75.598974232192802,13.784727427275127],[75.601887933710771,13.785672752500622],[75.604516947894112,13.791941940168568],[75.609168280679995,13.794773186212158],[75.61154958521567,13.798396289256504],[75.612916471413811,13.800036552694269],[75.610729453496788,13.806597606445331],[75.609909321777906,13.811518396758627],[75.611797294863337,13.816007531539075],[75.615103489330835,13.816165809832295],[75.616470375528962,13.818626204988943],[75.617919772506056,13.820779524167705]]]}}
]
}
