{
"type": "FeatureCollection",
"name": "sample_01_boundary",
"crs": { "type": "name", "properties": { "name": "urn:ogc:def:crs:EPSG::32643" } },
"features": [
{"type":"Feature","properties":{"sample_id":"sample_01"},"geometry":{"type":"Polygon","coordinates":[[[571087.481208796845749,1527209.690332708880305],[572258.395870838779956,1527514.718521980335936],[572868.452249381574802,1526491.398145069833845],[573084.923867574194446,1525871.502147518098354],[573055.405010547954589,1525310.643864019075409],[571372.830160050769337,1524720.266723493812606],[570723.415305472910404,1526993.218714516144246],[571087.481208796845749,1527209.690332708880305]]]}}
]
}
